[
    {
        "Altitude(m)": 617719.7645464252,
        "Argument of Periapsis(deg)": 0.0,
        "Eccentricity": 0.0,
        "Inclination(deg)": 60.0,
        "Latitude(deg)": -41.10262278855472,
        "Longitude(deg)": -4.905278135986179,
        "Mean Anomaly(deg)": -130.90909999999997,
        "RAAN(deg)": 245.0,
        "Satellite Name": "Test1 1092",
        "Satellite Number": 1092,
        "Semi-Major Axis(m)": 6980739.136638005,
        "Time(s)": 0
    },
    {
        "Altitude(m)": 617911.3001567365,
        "Argument of Periapsis(deg)": 0.00010418945913296404,
        "Eccentricity": 0.0,
        "Inclination(deg)": 60.0,
        "Latitude(deg)": -41.565814006246505,
        "Longitude(deg)": -4.40087049468416,
        "Mean Anomaly(deg)": -130.2889938545381,
        "RAAN(deg)": 244.99957995086027,
        "Satellite Name": "Test1 1092",
        "Satellite Number": 1092,
        "Semi-Major Axis(m)": 6980739.136638005,
        "Time(s)": 10
    }
]